CCSDS_OMM_VERS = 2.0
CREATION_DATE  = 
ORIGINATOR     = 

OBJECT_NAME    = CZ-4B R/B
OBJECT_ID      = 2025-289B
CENTER_NAME    = EARTH
REF_FRAME      = TEME
TIME_SYSTEM    = UTC
MEAN_ELEMENT_THEORY = SGP/SGP4

EPOCH          = 2025-12-27T10:37:57.809280
MEAN_MOTION    = 15.70879621
ECCENTRICITY   = .0137707
INCLINATION    = 97.5228
RA_OF_ASC_NODE = 67.8786
ARG_OF_PERICENTER = 307.1065
MEAN_ANOMALY   = 51.7676

EPHEMERIS_TYPE = 0
CLASSIFICATION_TYPE = U
NORAD_CAT_ID   = 66989
ELEMENT_SET_NO = 999
REV_AT_EPOCH   = 287
BSTAR          = .59203E-3
MEAN_MOTION_DOT = .129868E-2
MEAN_MOTION_DDOT = .72162E-5

CCSDS_OMM_VERS = 2.0
CREATION_DATE  = 
ORIGINATOR     = 

OBJECT_NAME    = TJS-22
OBJECT_ID      = 2025-290A
CENTER_NAME    = EARTH
REF_FRAME      = TEME
TIME_SYSTEM    = UTC
MEAN_ELEMENT_THEORY = SGP/SGP4

EPOCH          = 2025-12-27T08:12:09.783360
MEAN_MOTION    = 1.00271892
ECCENTRICITY   = .0003374
INCLINATION    = 1.9517
RA_OF_ASC_NODE = 285.0365
ARG_OF_PERICENTER = 343.2703
MEAN_ANOMALY   = 17.2585

EPHEMERIS_TYPE = 0
CLASSIFICATION_TYPE = U
NORAD_CAT_ID   = 66990
ELEMENT_SET_NO = 999
REV_AT_EPOCH   = 30
BSTAR          = 0
MEAN_MOTION_DOT = .17E-6
MEAN_MOTION_DDOT = 0

CCSDS_OMM_VERS = 2.0
CREATION_DATE  = 
ORIGINATOR     = 

OBJECT_NAME    = CZ-3B R/B
OBJECT_ID      = 2025-290B
CENTER_NAME    = EARTH
REF_FRAME      = TEME
TIME_SYSTEM    = UTC
MEAN_ELEMENT_THEORY = SGP/SGP4

EPOCH          = 2025-12-15T17:23:33.043200
MEAN_MOTION    = 2.38388611
ECCENTRICITY   = .7240884
INCLINATION    = 28.4636
RA_OF_ASC_NODE = 300.4666
ARG_OF_PERICENTER = 182.7002
MEAN_ANOMALY   = 168.6250

EPHEMERIS_TYPE = 0
CLASSIFICATION_TYPE = U
NORAD_CAT_ID   = 66991
ELEMENT_SET_NO = 999
REV_AT_EPOCH   = 16
BSTAR          = .75879E-3
MEAN_MOTION_DOT = .57911E-3
MEAN_MOTION_DDOT = -.20514E-6

CCSDS_OMM_VERS = 2.0
CREATION_DATE  = 
ORIGINATOR     = 

OBJECT_NAME    = 2025-292A
OBJECT_ID      = 2025-292A
CENTER_NAME    = EARTH
REF_FRAME      = TEME
TIME_SYSTEM    = UTC
MEAN_ELEMENT_THEORY = SGP/SGP4

EPOCH          = 2025-12-27T10:31:20.035776
MEAN_MOTION    = 15.04608424
ECCENTRICITY   = .0014805
INCLINATION    = 97.6491
RA_OF_ASC_NODE = 73.8452
ARG_OF_PERICENTER = 220.0074
MEAN_ANOMALY   = 140.0062

EPHEMERIS_TYPE = 0
CLASSIFICATION_TYPE = U
NORAD_CAT_ID   = 66993
ELEMENT_SET_NO = 999
REV_AT_EPOCH   = 260
BSTAR          = .36034E-3
MEAN_MOTION_DOT = .501E-4
MEAN_MOTION_DDOT = 0

CCSDS_OMM_VERS = 2.0
CREATION_DATE  = 
ORIGINATOR     = 

OBJECT_NAME    = 2025-292B
OBJECT_ID      = 2025-292B
CENTER_NAME    = EARTH
REF_FRAME      = TEME
TIME_SYSTEM    = UTC
MEAN_ELEMENT_THEORY = SGP/SGP4

EPOCH          = 2025-12-26T21:44:28.806144
MEAN_MOTION    = 15.04654531
ECCENTRICITY   = .0014552
INCLINATION    = 97.6501
RA_OF_ASC_NODE = 73.3208
ARG_OF_PERICENTER = 222.0345
MEAN_ANOMALY   = 137.9766

EPHEMERIS_TYPE = 0
CLASSIFICATION_TYPE = U
NORAD_CAT_ID   = 66994
ELEMENT_SET_NO = 999
REV_AT_EPOCH   = 252
BSTAR          = .41508E-3
MEAN_MOTION_DOT = .5788E-4
MEAN_MOTION_DDOT = 0

CCSDS_OMM_VERS = 2.0
CREATION_DATE  = 
ORIGINATOR     = 

OBJECT_NAME    = 2025-292C
OBJECT_ID      = 2025-292C
CENTER_NAME    = EARTH
REF_FRAME      = TEME
TIME_SYSTEM    = UTC
MEAN_ELEMENT_THEORY = SGP/SGP4

EPOCH          = 2025-12-25T05:50:07.257120
MEAN_MOTION    = 15.04668363
ECCENTRICITY   = .0014688
INCLINATION    = 97.6495
RA_OF_ASC_NODE = 71.6733
ARG_OF_PERICENTER = 227.9665
MEAN_ANOMALY   = 132.0312

EPHEMERIS_TYPE = 0
CLASSIFICATION_TYPE = U
NORAD_CAT_ID   = 66995
ELEMENT_SET_NO = 999
REV_AT_EPOCH   = 227
BSTAR          = .41226E-3
MEAN_MOTION_DOT = .5751E-4
MEAN_MOTION_DDOT = 0

CCSDS_OMM_VERS = 2.0
CREATION_DATE  = 
ORIGINATOR     = 

OBJECT_NAME    = 2025-292D
OBJECT_ID      = 2025-292D
CENTER_NAME    = EARTH
REF_FRAME      = TEME
TIME_SYSTEM    = UTC
MEAN_ELEMENT_THEORY = SGP/SGP4

EPOCH          = 2025-12-25T05:49:36.025248
MEAN_MOTION    = 15.04678565
ECCENTRICITY   = .0013797
INCLINATION    = 97.6491
RA_OF_ASC_NODE = 71.6729
ARG_OF_PERICENTER = 230.5158
MEAN_ANOMALY   = 129.4848

EPHEMERIS_TYPE = 0
CLASSIFICATION_TYPE = U
NORAD_CAT_ID   = 66996
ELEMENT_SET_NO = 999
REV_AT_EPOCH   = 227
BSTAR          = .27339E-3
MEAN_MOTION_DOT = .3792E-4
MEAN_MOTION_DDOT = 0

CCSDS_OMM_VERS = 2.0
CREATION_DATE  = 
ORIGINATOR     = 

OBJECT_NAME    = 2025-292E
OBJECT_ID      = 2025-292E
CENTER_NAME    = EARTH
REF_FRAME      = TEME
TIME_SYSTEM    = UTC
MEAN_ELEMENT_THEORY = SGP/SGP4

EPOCH          = 2025-12-27T10:28:18.848928
MEAN_MOTION    = 15.04792599
ECCENTRICITY   = .0014387
INCLINATION    = 97.6508
RA_OF_ASC_NODE = 73.8512
ARG_OF_PERICENTER = 224.1252
MEAN_ANOMALY   = 135.8827

EPHEMERIS_TYPE = 0
CLASSIFICATION_TYPE = U
NORAD_CAT_ID   = 66997
ELEMENT_SET_NO = 999
REV_AT_EPOCH   = 259
BSTAR          = .37449E-3
MEAN_MOTION_DOT = .5235E-4
MEAN_MOTION_DDOT = 0

CCSDS_OMM_VERS = 2.0
CREATION_DATE  = 
ORIGINATOR     = 

OBJECT_NAME    = 2025-292F
OBJECT_ID      = 2025-292F
CENTER_NAME    = EARTH
REF_FRAME      = TEME
TIME_SYSTEM    = UTC
MEAN_ELEMENT_THEORY = SGP/SGP4

EPOCH          = 2025-12-27T12:01:18.471072
MEAN_MOTION    = 15.04983953
ECCENTRICITY   = .001552
INCLINATION    = 97.6529
RA_OF_ASC_NODE = 73.9235
ARG_OF_PERICENTER = 224.7121
MEAN_ANOMALY   = 135.2854

EPHEMERIS_TYPE = 0
CLASSIFICATION_TYPE = U
NORAD_CAT_ID   = 66998
ELEMENT_SET_NO = 999
REV_AT_EPOCH   = 261
BSTAR          = .50707E-3
MEAN_MOTION_DOT = .7151E-4
MEAN_MOTION_DDOT = 0

CCSDS_OMM_VERS = 2.0
CREATION_DATE  = 
ORIGINATOR     = 

OBJECT_NAME    = 2025-292G
OBJECT_ID      = 2025-292G
CENTER_NAME    = EARTH
REF_FRAME      = TEME
TIME_SYSTEM    = UTC
MEAN_ELEMENT_THEORY = SGP/SGP4

EPOCH          = 2025-12-27T12:00:15.204672
MEAN_MOTION    = 15.05048286
ECCENTRICITY   = .0015036
INCLINATION    = 97.6539
RA_OF_ASC_NODE = 73.9263
ARG_OF_PERICENTER = 226.6631
MEAN_ANOMALY   = 133.3343

EPHEMERIS_TYPE = 0
CLASSIFICATION_TYPE = U
NORAD_CAT_ID   = 66999
ELEMENT_SET_NO = 999
REV_AT_EPOCH   = 261
BSTAR          = .50738E-3
MEAN_MOTION_DOT = .7167E-4
MEAN_MOTION_DDOT = 0

CCSDS_OMM_VERS = 2.0
CREATION_DATE  = 
ORIGINATOR     = 

OBJECT_NAME    = 2025-292H
OBJECT_ID      = 2025-292H
CENTER_NAME    = EARTH
REF_FRAME      = TEME
TIME_SYSTEM    = UTC
MEAN_ELEMENT_THEORY = SGP/SGP4

EPOCH          = 2025-12-27T12:00:00.556416
MEAN_MOTION    = 15.05085952
ECCENTRICITY   = .0014977
INCLINATION    = 97.6552
RA_OF_ASC_NODE = 73.9294
ARG_OF_PERICENTER = 226.5154
MEAN_ANOMALY   = 133.4828

EPHEMERIS_TYPE = 0
CLASSIFICATION_TYPE = U
NORAD_CAT_ID   = 67000
ELEMENT_SET_NO = 999
REV_AT_EPOCH   = 248
BSTAR          = .6039E-3
MEAN_MOTION_DOT = .8552E-4
MEAN_MOTION_DDOT = 0

CCSDS_OMM_VERS = 2.0
CREATION_DATE  = 
ORIGINATOR     = 

OBJECT_NAME    = 2025-292J
OBJECT_ID      = 2025-292J
CENTER_NAME    = EARTH
REF_FRAME      = TEME
TIME_SYSTEM    = UTC
MEAN_ELEMENT_THEORY = SGP/SGP4

EPOCH          = 2025-12-27T10:34:09.867072
MEAN_MOTION    = 15.04462275
ECCENTRICITY   = .0015247
INCLINATION    = 97.6524
RA_OF_ASC_NODE = 73.8499
ARG_OF_PERICENTER = 216.1958
MEAN_ANOMALY   = 143.8238

EPHEMERIS_TYPE = 0
CLASSIFICATION_TYPE = U
NORAD_CAT_ID   = 67001
ELEMENT_SET_NO = 999
REV_AT_EPOCH   = 260
BSTAR          = .47607E-3
MEAN_MOTION_DOT = .6616E-4
MEAN_MOTION_DDOT = 0

