CZ-4B R/B               
1 66989U 25289B   25361.44303020  .00129868  72162-5  59203-3 0  9996
2 66989  97.5228  67.8786 0137707 307.1065  51.7676 15.70879621  2877
TJS-22                  
1 66990U 25290A   25361.34177990  .00000017  00000+0  00000+0 0  9991
2 66990   1.9517 285.0365 0003374 343.2703  17.2585  1.00271892   304
CZ-3B R/B               
1 66991U 25290B   25349.72468800  .00057911 -20514-6  75879-3 0  9998
2 66991  28.4636 300.4666 7240884 182.7002 168.6250  2.38388611   165
2025-292A               
1 66993U 25292A   25361.43842634  .00005010  00000+0  36034-3 0  9998
2 66993  97.6491  73.8452 0014805 220.0074 140.0062 15.04608424  2608
2025-292B               
1 66994U 25292B   25360.90588896  .00005788  00000+0  41508-3 0  9991
2 66994  97.6501  73.3208 0014552 222.0345 137.9766 15.04654531  2524
2025-292C               
1 66995U 25292C   25359.24313955  .00005751  00000+0  41226-3 0  9996
2 66995  97.6495  71.6733 0014688 227.9665 132.0312 15.04668363  2273
2025-292D               
1 66996U 25292D   25359.24277807  .00003792  00000+0  27339-3 0  9994
2 66996  97.6491  71.6729 0013797 230.5158 129.4848 15.04678565  2271
2025-292E               
1 66997U 25292E   25361.43632927  .00005235  00000+0  37449-3 0  9994
2 66997  97.6508  73.8512 0014387 224.1252 135.8827 15.04792599  2592
2025-292F               
1 66998U 25292F   25361.50090823  .00007151  00000+0  50707-3 0  9997
2 66998  97.6529  73.9235 0015520 224.7121 135.2854 15.04983953  2613
2025-292G               
1 66999U 25292G   25361.50017598  .00007167  00000+0  50738-3 0  9997
2 66999  97.6539  73.9263 0015036 226.6631 133.3343 15.05048286  2619
2025-292H               
1 67000U 25292H   25361.50000644  .00008552  00000+0  60390-3 0  9999
2 67000  97.6552  73.9294 0014977 226.5154 133.4828 15.05085952  2489
2025-292J               
1 67001U 25292J   25361.44039198  .00006616  00000+0  47607-3 0  9994
2 67001  97.6524  73.8499 0015247 216.1958 143.8238 15.04462275  2603
